[{"OBJECT_NAME":"GEOSCAN 4 (RS92S4)","OBJECT_ID":"2025-155S","EPOCH":"2026-03-09T21:50:07.724832","MEAN_MOTION":15.30369837,"ECCENTRICITY":0.00070968,"INCLINATION":97.4465,"RA_OF_ASC_NODE":37.7626,"ARG_OF_PERICENTER":154.7045,"MEAN_ANOMALY":205.4544,"EPHEMERIS_TYPE":0,"CLASSIFICATION_TYPE":"U","NORAD_CAT_ID":64892,"ELEMENT_SET_NO":999,"REV_AT_EPOCH":6562,"BSTAR":0.00068609503,"MEAN_MOTION_DOT":0.00020121,"MEAN_MOTION_DDOT":0},{"OBJECT_NAME":"STARLINK-34741","OBJECT_ID":"2025-167V","EPOCH":"2026-03-09T01:29:36.472416","MEAN_MOTION":15.30205441,"ECCENTRICITY":9.137e-5,"INCLINATION":53.1598,"RA_OF_ASC_NODE":29.5813,"ARG_OF_PERICENTER":122.707,"MEAN_ANOMALY":237.4019,"EPHEMERIS_TYPE":0,"CLASSIFICATION_TYPE":"U","NORAD_CAT_ID":65097,"ELEMENT_SET_NO":999,"REV_AT_EPOCH":3338,"BSTAR":0.00081964852,"MEAN_MOTION_DOT":0.00023999,"MEAN_MOTION_DDOT":0}]
